{
    "num_satellites": 100,
    "num_planes": 25,
    "plane_phasing": 0,
    "walker_config": [
        100,
        25,
        0
    ],
    "inclination": "SSO",
    "altitude_km": 550.0,
    "eccentricity": 0.001,
    "arg_perigee": 0.0,
    "spacecraft": [
        {
            "id": 1,
            "name": "Satellite 1",
            "tle_line1": "1     1U          25  1.00000000  .00000000  00000-0  00000-0 0    02",
            "tle_line2": "2     1  97.5929 129.6000 0010000   0.0000 180.0000 15.05490874    05",
            "semimajor_axis": 6928136.3,
            "eccentricity": 0.001,
            "inclination_deg": 97.59287425682137,
            "raan_deg": 129.6,
            "arg_perigee_deg": 0.0,
            "mean_anomaly_deg": 180.0
        },
        {
            "id": 1,
            "name": "Satellite 1",
            "tle_line1": "1     1U          25  1.00000000  .00000000  00000-0  00000-0 0    02",
            "tle_line2": "2     1  97.5929 129.6000 0010000   0.0000 270.0000 15.05490874    05",
            "semimajor_axis": 6928136.3,
            "eccentricity": 0.001,
            "inclination_deg": 97.59287425682137,
            "raan_deg": 129.6,
            "arg_perigee_deg": 0.0,
            "mean_anomaly_deg": 270.0
        },
        {
            "id": 1,
            "name": "Satellite 1",
            "tle_line1": "1     1U          25  1.00000000  .00000000  00000-0  00000-0 0    02",
            "tle_line2": "2     1  97.5929 144.0000 0010000   0.0000   0.0000 15.05490874    07",
            "semimajor_axis": 6928136.3,
            "eccentricity": 0.001,
            "inclination_deg": 97.59287425682137,
            "raan_deg": 144.0,
            "arg_perigee_deg": 0.0,
            "mean_anomaly_deg": 0.0
        },
        {
            "id": 1,
            "name": "Satellite 1",
            "tle_line1": "1     1U          25  1.00000000  .00000000  00000-0  00000-0 0    02",
            "tle_line2": "2     1  97.5929 144.0000 0010000   0.0000  90.0000 15.05490874    06",
            "semimajor_axis": 6928136.3,
            "eccentricity": 0.001,
            "inclination_deg": 97.59287425682137,
            "raan_deg": 144.0,
            "arg_perigee_deg": 0.0,
            "mean_anomaly_deg": 90.0
        },
        {
            "id": 1,
            "name": "Satellite 1",
            "tle_line1": "1     1U          25  1.00000000  .00000000  00000-0  00000-0 0    02",
            "tle_line2": "2     1  97.5929 144.0000 0010000   0.0000 180.0000 15.05490874    06",
            "semimajor_axis": 6928136.3,
            "eccentricity": 0.001,
            "inclination_deg": 97.59287425682137,
            "raan_deg": 144.0,
            "arg_perigee_deg": 0.0,
            "mean_anomaly_deg": 180.0
        },
        {
            "id": 1,
            "name": "Satellite 1",
            "tle_line1": "1     1U          25  1.00000000  .00000000  00000-0  00000-0 0    02",
            "tle_line2": "2     1  97.5929 144.0000 0010000   0.0000 270.0000 15.05490874    06",
            "semimajor_axis": 6928136.3,
            "eccentricity": 0.001,
            "inclination_deg": 97.59287425682137,
            "raan_deg": 144.0,
            "arg_perigee_deg": 0.0,
            "mean_anomaly_deg": 270.0
        },
        {
            "id": 1,
            "name": "Satellite 1",
            "tle_line1": "1     1U          25  1.00000000  .00000000  00000-0  00000-0 0    02",
            "tle_line2": "2     1  97.5929 158.4000 0010000   0.0000   0.0000 15.05490874    06",
            "semimajor_axis": 6928136.3,
            "eccentricity": 0.001,
            "inclination_deg": 97.59287425682137,
            "raan_deg": 158.4,
            "arg_perigee_deg": 0.0,
            "mean_anomaly_deg": 0.0
        },
        {
            "id": 1,
            "name": "Satellite 1",
            "tle_line1": "1     1U          25  1.00000000  .00000000  00000-0  00000-0 0    02",
            "tle_line2": "2     1  97.5929 158.4000 0010000   0.0000  90.0000 15.05490874    05",
            "semimajor_axis": 6928136.3,
            "eccentricity": 0.001,
            "inclination_deg": 97.59287425682137,
            "raan_deg": 158.4,
            "arg_perigee_deg": 0.0,
            "mean_anomaly_deg": 90.0
        },
        {
            "id": 1,
            "name": "Satellite 1",
            "tle_line1": "1     1U          25  1.00000000  .00000000  00000-0  00000-0 0    02",
            "tle_line2": "2     1  97.5929 158.4000 0010000   0.0000 180.0000 15.05490874    05",
            "semimajor_axis": 6928136.3,
            "eccentricity": 0.001,
            "inclination_deg": 97.59287425682137,
            "raan_deg": 158.4,
            "arg_perigee_deg": 0.0,
            "mean_anomaly_deg": 180.0
        },
        {
            "id": 1,
            "name": "Satellite 1",
            "tle_line1": "1     1U          25  1.00000000  .00000000  00000-0  00000-0 0    02",
            "tle_line2": "2     1  97.5929 158.4000 0010000   0.0000 270.0000 15.05490874    05",
            "semimajor_axis": 6928136.3,
            "eccentricity": 0.001,
            "inclination_deg": 97.59287425682137,
            "raan_deg": 158.4,
            "arg_perigee_deg": 0.0,
            "mean_anomaly_deg": 270.0
        },
        {
            "id": 1,
            "name": "Satellite 1",
            "tle_line1": "1     1U          25  1.00000000  .00000000  00000-0  00000-0 0    02",
            "tle_line2": "2     1  97.5929 172.8000 0010000   0.0000   0.0000 15.05490874    06",
            "semimajor_axis": 6928136.3,
            "eccentricity": 0.001,
            "inclination_deg": 97.59287425682137,
            "raan_deg": 172.8,
            "arg_perigee_deg": 0.0,
            "mean_anomaly_deg": 0.0
        },
        {
            "id": 1,
            "name": "Satellite 1",
            "tle_line1": "1     1U          25  1.00000000  .00000000  00000-0  00000-0 0    02",
            "tle_line2": "2     1  97.5929 172.8000 0010000   0.0000  90.0000 15.05490874    05",
            "semimajor_axis": 6928136.3,
            "eccentricity": 0.001,
            "inclination_deg": 97.59287425682137,
            "raan_deg": 172.8,
            "arg_perigee_deg": 0.0,
            "mean_anomaly_deg": 90.0
        },
        {
            "id": 1,
            "name": "Satellite 1",
            "tle_line1": "1     1U          25  1.00000000  .00000000  00000-0  00000-0 0    02",
            "tle_line2": "2     1  97.5929 172.8000 0010000   0.0000 180.0000 15.05490874    05",
            "semimajor_axis": 6928136.3,
            "eccentricity": 0.001,
            "inclination_deg": 97.59287425682137,
            "raan_deg": 172.8,
            "arg_perigee_deg": 0.0,
            "mean_anomaly_deg": 180.0
        },
        {
            "id": 1,
            "name": "Satellite 1",
            "tle_line1": "1     1U          25  1.00000000  .00000000  00000-0  00000-0 0    02",
            "tle_line2": "2     1  97.5929 172.8000 0010000   0.0000 270.0000 15.05490874    05",
            "semimajor_axis": 6928136.3,
            "eccentricity": 0.001,
            "inclination_deg": 97.59287425682137,
            "raan_deg": 172.8,
            "arg_perigee_deg": 0.0,
            "mean_anomaly_deg": 270.0
        },
        {
            "id": 1,
            "name": "Satellite 1",
            "tle_line1": "1     1U          25  1.00000000  .00000000  00000-0  00000-0 0    02",
            "tle_line2": "2     1  97.5929 187.2000 0010000   0.0000   0.0000 15.05490874    06",
            "semimajor_axis": 6928136.3,
            "eccentricity": 0.001,
            "inclination_deg": 97.59287425682137,
            "raan_deg": 187.20000000000002,
            "arg_perigee_deg": 0.0,
            "mean_anomaly_deg": 0.0
        },
        {
            "id": 1,
            "name": "Satellite 1",
            "tle_line1": "1     1U          25  1.00000000  .00000000  00000-0  00000-0 0    02",
            "tle_line2": "2     1  97.5929 187.2000 0010000   0.0000  90.0000 15.05490874    05",
            "semimajor_axis": 6928136.3,
            "eccentricity": 0.001,
            "inclination_deg": 97.59287425682137,
            "raan_deg": 187.20000000000002,
            "arg_perigee_deg": 0.0,
            "mean_anomaly_deg": 90.0
        },
        {
            "id": 1,
            "name": "Satellite 1",
            "tle_line1": "1     1U          25  1.00000000  .00000000  00000-0  00000-0 0    02",
            "tle_line2": "2     1  97.5929 187.2000 0010000   0.0000 180.0000 15.05490874    05",
            "semimajor_axis": 6928136.3,
            "eccentricity": 0.001,
            "inclination_deg": 97.59287425682137,
            "raan_deg": 187.20000000000002,
            "arg_perigee_deg": 0.0,
            "mean_anomaly_deg": 180.0
        },
        {
            "id": 1,
            "name": "Satellite 1",
            "tle_line1": "1     1U          25  1.00000000  .00000000  00000-0  00000-0 0    02",
            "tle_line2": "2     1  97.5929 187.2000 0010000   0.0000 270.0000 15.05490874    05",
            "semimajor_axis": 6928136.3,
            "eccentricity": 0.001,
            "inclination_deg": 97.59287425682137,
            "raan_deg": 187.20000000000002,
            "arg_perigee_deg": 0.0,
            "mean_anomaly_deg": 270.0
        },
        {
            "id": 1,
            "name": "Satellite 1",
            "tle_line1": "1     1U          25  1.00000000  .00000000  00000-0  00000-0 0    02",
            "tle_line2": "2     1  97.5929 201.6000 0010000   0.0000   0.0000 15.05490874    07",
            "semimajor_axis": 6928136.3,
            "eccentricity": 0.001,
            "inclination_deg": 97.59287425682137,
            "raan_deg": 201.6,
            "arg_perigee_deg": 0.0,
            "mean_anomaly_deg": 0.0
        }
    ]
}